CALSPHERE 1             
1 00900U 64063C   09158.95305240  .00000244  00000-0  26523-3 0  8056
2 00900  90.1582 326.9274 0025476 258.6529 101.1781 13.70461739218203
CALSPHERE 2             
1 00902U 64063E   09160.02118143  .00000075  00000-0  10000-3 0   779
2 00902  90.1585 329.9367 0016028 274.6589  85.2730 13.52464770 16267
LCS 1                   
1 01361U 65034C   09159.15385830  .00000009  00000-0  10000-3 0  1092
2 01361  32.1374 180.4950 0005721 310.1650  49.8347  9.89276669594466
TEMPSAT 1               
1 01512U 65065E   09159.37760221  .00000060  00000-0  10000-3 0  1591
2 01512  89.8090 300.5451 0071800  65.4449 295.4146 13.33258782131458
CALSPHERE 4(A)          
1 01520U 65065H   09159.74837809  .00000059  00000-0  10000-3 0  2946
2 01520  90.1880  83.0856 0070826 353.0246   6.9902 13.35315407133120
OPS 5712 (P/L 160)      
1 02826U 67053A   09159.56688596  .00000440  00000-0  16425-3 0  7409
2 02826  69.9318 187.9712 0006897 178.9391 181.1754 14.38246950166056
OPS 5712 (P/L 153)      
1 02874U 67053H   09159.82894051 -.00000027  00000-0  19361-4 0  1326
2 02874  69.9711 109.8509 0008025 325.5282  34.5305 13.95923211139379
SURCAL 150B             
1 02909U 67053J   09160.05066626  .00000454  00000-0  14306-3 0  9178
2 02909  69.9568   1.7812 0004130 322.2845  37.8013 14.46461883171790
RIGIDSPHERE 2 (LCS 4)   
1 05398U 71067E   09160.08327699  .00000183  00000-0  61305-4 0  5803
2 05398  87.6223 251.6544 0064755 199.6063 160.2635 14.31154208983409
RADCAT                  
1 06212U 72076A   09159.85253181  .00002011  00000-0  75264-4 0  7574
2 06212  98.5930 166.6924 0004121  40.8804 319.2678 15.28819255121605
